{
  "norad_id": 53196,
  "name": "STARLINK-4407",
  "history": [
    {
      "epoch": "2026-03-29T04:35:38.548896",
      "apogee_km": 230.86633859129324,
      "perigee_km": 220.32809952452044,
      "latitude_deg": 83.55192625378835,
      "longitude_deg": -26.02383455983363,
      "semi_major_axis_km": 6603.734219057907,
      "eccentricity": 0.0007979,
      "inclination_deg": 97.6002,
      "raan_deg": 177.3969,
      "arg_perigee_deg": 277.0989,
      "mean_anomaly_deg": 82.939,
      "mean_motion_rev_day": 16.17775981
    }
  ]
}